H1 CPF 01  gfz 2021 07 04 00  6851 tandemx   
H2 1003001  6202 36605    2021 07 04 00 59 42 2021 07 09 00 00 42   120 1 1  0 0 0
H9
10 0 59400  82782.000000  0    2012931.594  -5534171.846  -3583329.271
10 0 59400  82902.000000  0    1972960.789  -5989038.315  -2783629.302
10 0 59400  83022.000000  0    1891563.011  -6338447.216  -1935063.487
10 0 59400  83142.000000  0    1772031.872  -6575507.217  -1052496.611
10 0 59400  83262.000000  0    1618436.320  -6695358.536   -151422.765
10 0 59400  83382.000000  0    1435515.025  -6695279.979    752313.786
10 0 59400  83502.000000  0    1228555.782  -6574754.261   1642803.447
10 0 59400  83622.000000  0    1003263.418  -6335490.015   2504362.103
10 0 59400  83742.000000  0     765619.934  -5981395.679   3321816.457
10 0 59400  83862.000000  0     521738.987  -5518510.353   4080777.784
10 0 59400  83982.000000  0     277720.352  -4954893.251   4767899.065
10 0 59400  84102.000000  0      39507.074  -4300474.011   5371111.432
10 0 59400  84222.000000  0    -187250.671  -3566867.657   5879834.930
10 0 59400  84342.000000  0    -397321.735  -2767158.351   6285160.605
10 0 59400  84462.000000  0    -586008.559  -1915658.296   6579999.137
10 0 59400  84582.000000  0    -749247.347  -1027648.605   6759198.111
10 0 59400  84702.000000  0    -883692.232   -119103.427   6819628.018
10 0 59400  84822.000000  0    -986782.467    793598.398   6760234.020
10 0 59400  84942.000000  0   -1056790.561   1693968.421   6582052.939
10 0 59400  85062.000000  0   -1092850.872   2565705.817   6288196.128
10 0 59400  85182.000000  0   -1094968.992   3392992.511   5883798.641
10 0 59400  85302.000000  0   -1064011.655   4160782.210   5375934.555
10 0 59400  85422.000000  0   -1001676.361   4855077.729   4773499.264
10 0 59400  85542.000000  0    -910442.828   5463193.532   4087059.597
10 0 59400  85662.000000  0    -793505.392   5973995.419   3328671.386
10 0 59400  85782.000000  0    -654689.893   6378113.973   2511671.978
10 0 59400  85902.000000  0    -498355.095   6668129.127   1650443.011
10 0 59400  86022.000000  0    -329279.597   6838713.758    760151.673
10 0 59400  86142.000000  0    -152539.116   6886737.157   -143522.757
10 0 59400  86262.000000  0      26623.336   6811325.855  -1044673.409
10 0 59400  86382.000000  0     202931.166   6613877.475  -1927456.222
10 0 59401    102.000000  0     371206.579   6298027.120  -2776376.046
10 0 59401    222.000000  0     526499.699   5869571.316  -3576563.021
10 0 59401    342.000000  0     664211.812   5336350.619  -4314035.214
10 0 59401    462.000000  0     780209.387   4708093.574  -4975941.541
10 0 59401    582.000000  0     870926.243   3996227.090  -5550780.357
10 0 59401    702.000000  0     933451.413   3213658.576  -6028590.988
10 0 59401    822.000000  0     965600.741   2374534.325  -6401116.132
10 0 59401    942.000000  0     965971.826   1493980.074  -6661932.264
10 0 59401   1062.000000  0     933980.819    587829.683  -6806549.873
10 0 59401   1182.000000  0     869881.139   -327655.929  -6832482.891
10 0 59401   1302.000000  0     774763.655  -1236075.142  -6739286.140
10 0 59401   1422.000000  0     650538.166  -2121171.665  -6528560.406
10 0 59401   1542.000000  0     499897.443  -2967116.746  -6203928.816
10 0 59401   1662.000000  0     326262.806  -3758788.478  -5770983.512
10 0 59401   1782.000000  0     133712.627  -4482040.847  -5237197.892
10 0 59401   1902.000000  0     -73104.485  -5123957.931  -4611809.015
10 0 59401   2022.000000  0    -289071.888  -5673090.734  -3905669.423
10 0 59401   2142.000000  0    -508720.113  -6119671.014  -3131068.316
10 0 59401   2262.000000  0    -726352.810  -6455796.463  -2301524.788
10 0 59401   2382.000000  0    -936180.961  -6675584.023  -1431555.797
10 0 59401   2502.000000  0   -1132461.934  -6775285.694   -536420.973
10 0 59401   2622.000000  0   -1309640.000  -6753362.470    368149.532
10 0 59401   2742.000000  0   -1462485.003  -6610514.693   1266238.155
10 0 59401   2862.000000  0   -1586225.762  -6349667.752   2142028.678
10 0 59401   2982.000000  0   -1676674.065  -5975912.355   2980094.278
10 0 59401   3102.000000  0   -1730336.129  -5496400.652   3765677.587
10 0 59401   3222.000000  0   -1744507.987  -4920201.542   4484956.301
10 0 59401   3342.000000  0   -1717353.334  -4258120.246   5125288.294
10 0 59401   3462.000000  0   -1647963.049  -3522487.035   5675434.395
10 0 59401   3582.000000  0   -1536393.528  -2726917.232   6125753.467
10 0 59401   3702.000000  0   -1383682.855  -1886051.511   6468364.919
10 0 59401   3822.000000  0   -1191846.070  -1015282.806   6697280.395
10 0 59401   3942.000000  0    -963850.424   -130471.563   6808503.013
10 0 59401   4062.000000  0    -703570.265    752343.498   6800092.055
10 0 59401   4182.000000  0    -415721.087   1617235.471   6672195.409
10 0 59401   4302.000000  0    -105773.955   2448676.384   6427047.134
10 0 59401   4422.000000  0     220147.950   3231815.844   6068930.516
10 0 59401   4542.000000  0     555388.401   3952747.469   5604107.975
10 0 59401   4662.000000  0     892891.498   4598759.554   5040717.175
10 0 59401   4782.000000  0    1225347.590   5158565.105   4388634.437
10 0 59401   4902.000000  0    1545347.900   5622506.352   3659305.867
10 0 59401   5022.000000  0    1845545.588   5982730.647   2865552.141
10 0 59401   5142.000000  0    2118821.796   6233334.598   2021341.633
10 0 59401   5262.000000  0    2358447.331   6370468.510   1141540.144
10 0 59401   5382.000000  0    2558240.068   6392399.136    241641.865
10 0 59401   5502.000000  0    2712711.721   6299529.417   -662510.864
10 0 59401   5622.000000  0    2817201.900   6094376.523  -1555014.474
10 0 59401   5742.000000  0    2867995.761   5781507.255  -2420191.599
10 0 59401   5862.000000  0    2862422.084   5367433.392  -3242873.084
10 0 59401   5982.000000  0    2798929.228   4860468.422  -4008668.627
10 0 59401   6102.000000  0    2677136.739   4270550.616  -4704218.455
10 0 59401   6222.000000  0    2497862.229   3609038.679  -5317422.364
10 0 59401   6342.000000  0    2263124.261   2888485.244  -5837642.738
10 0 59401   6462.000000  0    1976121.239   2122392.710  -6255879.772
10 0 59401   6582.000000  0    1641186.514   1324957.052  -6564915.273
10 0 59401   6702.000000  0    1263722.693    510805.819  -6759425.611
10 0 59401   6822.000000  0     850114.463   -305266.401  -6836064.859
10 0 59401   6942.000000  0     407620.868  -1108561.962  -6793515.677
10 0 59401   7062.000000  0     -55749.434  -1884737.968  -6632507.786
10 0 59401   7182.000000  0    -531378.625  -2620054.697  -6355807.474
10 0 59401   7302.000000  0   -1010196.032  -3301615.039  -5968176.714
10 0 59401   7422.000000  0   -1482846.325  -3917588.681  -5476298.950
10 0 59401   7542.000000  0   -1939867.793  -4457418.352  -4888675.568
10 0 59401   7662.000000  0   -2371878.869  -4912006.443  -4215491.036
10 0 59401   7782.000000  0   -2769769.231  -5273876.190  -3468446.389
10 0 59401   7902.000000  0   -3124890.738  -5537303.663  -2660563.973
10 0 59401   8022.000000  0   -3429244.588  -5698418.330  -1805965.989
10 0 59401   8142.000000  0   -3675660.736  -5755269.058   -919629.080
10 0 59401   8262.000000  0   -3857963.943  -5707852.387    -17118.676
10 0 59401   8382.000000  0   -3971121.617  -5558101.488    885690.642
10 0 59401   8502.000000  0   -4011370.097  -5309835.968   1772902.872
10 0 59401   8622.000000  0   -3976315.363  -4968672.585   2628890.158
10 0 59401   8742.000000  0   -3865005.488  -4541899.757   3438576.232
10 0 59401   8862.000000  0   -3677973.683  -4038320.107   4187708.619
10 0 59401   8982.000000  0   -3417250.383  -3468063.960   4863114.119
10 0 59401   9102.000000  0   -3086344.561  -2842378.865   5452930.975
10 0 59401   9222.000000  0   -2690195.417  -2173402.128   5946814.697
10 0 59401   9342.000000  0   -2235095.639  -1473921.404   6336115.489
10 0 59401   9462.000000  0   -1728588.106   -757126.590   6614026.027
10 0 59401   9582.000000  0   -1179336.107    -36357.419   6775693.861
10 0 59401   9702.000000  0    -596973.768    675143.962   6818298.528
10 0 59401   9822.000000  0       8062.531   1364475.232   6741098.447
10 0 59401   9942.000000  0     624720.967   2019307.685   6545443.344
10 0 59401  10062.000000  0    1241535.913   2628106.804   6234751.582
10 0 59401  10182.000000  0    1846840.190   3180335.373   5814453.839
10 0 59401  10302.000000  0    2428985.195   3666638.350   5291904.470
10 0 59401  10422.000000  0    2976566.629   4079006.162   4676259.245
10 0 59401  10542.000000  0    3478650.477   4410911.231   3978318.960
10 0 59401  10662.000000  0    3924992.890   4657415.966   3210344.945
10 0 59401  10782.000000  0    4306255.298   4815252.854   2385846.200
10 0 59401  10902.000000  0    4614202.663   4882868.143   1519336.705
10 0 59401  11022.000000  0    4841881.229   4860432.227    626076.994
10 0 59401  11142.000000  0    4983776.068   4749815.648   -278202.702
10 0 59401  11262.000000  0    5035936.739   4554527.949  -1177589.496
10 0 59401  11382.000000  0    4996071.925   4279623.663  -2056275.521
10 0 59401  11502.000000  0    4863611.707   3931578.544  -2898842.610
10 0 59401  11622.000000  0    4639734.562   3518138.564  -3690537.783
10 0 59401  11742.000000  0    4327358.472   3048146.573  -4417533.391
10 0 59401  11862.000000  0    3931097.876   2531350.496  -5067166.595
10 0 59401  11982.000000  0    3457188.796   1978197.996  -5628154.038
10 0 59401  12102.000000  0    2913383.347   1399623.481  -6090779.263
10 0 59401  12222.000000  0    2308816.145    806831.805  -6447050.015
10 0 59401  12342.000000  0    1653847.070    211083.280  -6690823.956
10 0 59401  12462.000000  0     959884.328   -376516.008  -6817904.475
10 0 59401  12582.000000  0     239186.959   -945217.267  -6826106.290
10 0 59401  12702.000000  0    -495347.810  -1484820.534  -6715286.932
10 0 59401  12822.000000  0   -1230408.914  -1985852.126  -6487349.221
99
